     2.100          NAVIGATION                              RINEX VERSION / TYPE
fic2rin                                 11/21/2008 05:52:51 PGM / RUN BY / DATE
                                                            END OF HEADER
 8 08 11 20  4  0  0.0 -.178668182343D-03 -.147792889038D-11  .000000000000D+00
     .470000000000D+02 -.312500000000D+01  .417195949314D-08 -.483715325828D+00
    -.275671482086D-06  .106068179011D-01  .494718551636D-05  .515370339966D+04
     .360000000000D+06  .124797224998D-06 -.982223767048D-01 -.175088644028D-06
     .986310523792D+00  .296218750000D+03  .294497583614D+01 -.815819696451D-08
     .144648882349D-09  .100000000000D+01  .150600000000D+04  .000000000000D+00
     .240000000000D+01  .000000000000D+00 -.372529029846D-08  .470000000000D+02
     .352806000000D+06  .400000000000D+01
 9 08 11 20  4  0  0.0  .257436186075D-04  .181898940355D-11  .000000000000D+00
     .106000000000D+03  .131562500000D+02  .456269005435D-08 -.787396044286D+00
     .877305865288D-06  .200860506156D-01  .584125518799D-05  .515365883255D+04
     .360000000000D+06 -.312924385071D-06 -.190020389626D+00  .195577740669D-06
     .974102659674D+00  .277375000000D+03  .145074698560D+01 -.854785605251D-08
     .201436962087D-09  .100000000000D+01  .150600000000D+04  .000000000000D+00
     .340000000000D+01  .000000000000D+00 -.558793544769D-08  .106000000000D+03
     .352806000000D+06  .400000000000D+01
10 08 11 20  4  0  0.0 -.744126737118D-05 -.454747350886D-12  .000000000000D+00
     .102000000000D+03 -.131250000000D+01  .465912264259D-08  .289692496204D+01
    -.763684511185D-07  .821081746835D-02  .763870775700D-05  .515373656654D+04
     .360000000000D+06 -.298023223877D-07 -.222456057721D+01 -.117346644402D-06
     .961111092786D+00  .233343750000D+03  .562302139581D+00 -.803962059675D-08
    -.309298597814D-09  .100000000000D+01  .150600000000D+04  .000000000000D+00
     .485000000000D+01  .000000000000D+00 -.232830643654D-08  .102000000000D+03
     .352806000000D+06  .400000000000D+01
11 08 11 20  4  0  0.0  .152108259499D-04 -.909494701773D-12  .000000000000D+00
     .360000000000D+02  .455625000000D+02  .644312552490D-08  .170543200723D-01
     .244565308094D-05  .890782277565D-02  .633113086224D-05  .515365357018D+04
     .360000000000D+06  .987201929092D-07  .278518343021D+01  .141561031342D-06
     .890495370009D+00  .219468750000D+03  .647349493619D+00 -.914716673050D-08
     .155006456641D-09  .100000000000D+01  .150600000000D+04  .000000000000D+00
     .240000000000D+01  .000000000000D+00 -.121071934700D-07  .360000000000D+02
     .352806000000D+06  .400000000000D+01
12 08 11 20  4  0  0.0 -.339485239238D-03  .250111042988D-11  .000000000000D+00
     .710000000000D+02 -.783750000000D+02  .456626163170D-08  .398585444192D+00
    -.415928661823D-05  .299588881899D-02  .702589750290D-05  .515378170013D+04
     .360000000000D+06  .745058059692D-07  .895676165650D+00 -.521540641785D-07
     .965174836366D+00  .249312500000D+03 -.837377107135D+00 -.820498462769D-08
    -.188936441390D-09  .100000000000D+01  .150600000000D+04  .000000000000D+00
     .240000000000D+01  .000000000000D+00 -.116415321827D-07  .710000000000D+02
     .352806000000D+06  .400000000000D+01
13 08 11 20  4  0  0.0  .277937389910D-03  .147792889038D-11  .000000000000D+00
     .550000000000D+02  .416250000000D+02  .362943689490D-08  .262059917173D+01
     .212900340557D-05  .359158799984D-02  .897236168385D-05  .515355468369D+04
     .360000000000D+06  .353902578354D-07 -.114974459804D+01 -.409781932831D-07
     .995229116087D+00  .221500000000D+03  .154777393001D+01 -.764496130047D-08
     .314298806093D-10  .100000000000D+01  .150600000000D+04  .000000000000D+00
     .240000000000D+01  .000000000000D+00 -.111758708954D-07  .550000000000D+02
     .352806000000D+06  .400000000000D+01
14 08 11 20  4  0  0.0 -.192353967577D-03  .488853402203D-11  .000000000000D+00
     .160000000000D+02  .228437500000D+02  .374372736984D-08  .226144597631D+01
     .118464231491D-05  .440457137302D-02  .868365168571D-05  .515376101685D+04
     .360000000000D+06 -.204890966415D-07 -.116808920893D+01 -.109896063805D-06
     .988853934147D+00  .227093750000D+03 -.213827498591D+01 -.769496338325D-08
     .260725145963D-10  .100000000000D+01  .150600000000D+04  .000000000000D+00
     .240000000000D+01  .000000000000D+00 -.931322574615D-08  .160000000000D+02
     .352806000000D+06  .400000000000D+01
15 08 11 20  4  0  0.0 -.213739462197D-03 -.613908923697D-11  .000000000000D+00
     .930000000000D+02  .246875000000D+02  .453411743562D-08  .300284080298D+01
     .141374766827D-05  .118902628310D-02  .925175845623D-05  .515373804283D+04
     .360000000000D+06  .409781932831D-07 -.121467082906D+01  .633299350739D-07
     .957066681669D+00  .197156250000D+03 -.996334088834D+00 -.814426781287D-08
     .328585115460D-10  .100000000000D+01  .150600000000D+04  .000000000000D+00
     .240000000000D+01  .000000000000D+00 -.977888703346D-08  .930000000000D+02
     .352806000000D+06  .400000000000D+01
17 08 11 20  4  0  0.0  .407625921071D-04  .568434188608D-12  .000000000000D+00
     .530000000000D+02 -.500000000000D+01  .440339770490D-08  .302595857617D+01
    -.162050127983D-06  .394593516830D-02  .114142894745D-04  .515361431122D+04
     .360000000000D+06 -.335276126862D-07  .195426058451D+01 -.186264514923D-07
     .959334154953D+00  .155937500000D+03 -.279960935901D+01 -.786318467606D-08
     .214294640518D-09  .100000000000D+01  .150600000000D+04  .000000000000D+00
     .240000000000D+01  .000000000000D+00 -.102445483208D-07  .530000000000D+02
     .352806000000D+06  .400000000000D+01
18 08 11 20  4  0  0.0 -.111194327474D-03  .386535248253D-11  .000000000000D+00
     .710000000000D+02 -.534375000000D+01  .495520640424D-08 -.201772768202D+01
    -.322237610817D-06  .989587826189D-02  .663846731186D-05  .515373583984D+04
     .360000000000D+06  .800937414169D-07 -.221627802805D+01 -.119209289551D-06
     .945176719890D+00  .242000000000D+03 -.244258080487D+01 -.824105755884D-08
    -.163578242262D-09  .100000000000D+01  .150600000000D+04  .000000000000D+00
     .240000000000D+01  .000000000000D+00 -.107102096081D-07  .710000000000D+02
     .352806000000D+06  .400000000000D+01
19 08 11 20  4  0  0.0  .354554504156D-04 -.227373675443D-12  .000000000000D+00
     .108000000000D+03  .896875000000D+01  .453197448921D-08  .234353311854D+01
     .508502125740D-06  .494278932456D-02  .103265047073D-04  .515375665283D+04
     .360000000000D+06 -.130385160446D-07  .201086982197D+01  .484287738800D-07
     .957116706153D+00  .178062500000D+03 -.419289762427D+00 -.792747306822D-08
     .900037490174D-10  .100000000000D+01  .150600000000D+04  .000000000000D+00
     .340000000000D+01  .000000000000D+00 -.144354999065D-07  .108000000000D+03
     .352806000000D+06  .400000000000D+01
20 08 11 20  4  0  0.0  .986061058939D-04 -.102318153949D-11  .000000000000D+00
     .107000000000D+03  .471875000000D+01  .505628204301D-08 -.190890026545D+01
     .245869159698D-06  .363427144475D-02  .707618892193D-05  .515373166466D+04
     .360000000000D+06  .782310962677D-07 -.226999968758D+01  .502914190292D-07
     .944774051689D+00  .235531250000D+03  .132789793957D+01 -.829963142725D-08
    -.254296306748D-09  .100000000000D+01  .150600000000D+04  .000000000000D+00
     .240000000000D+01  .000000000000D+00 -.651925802231D-08  .107000000000D+03
     .352806000000D+06  .400000000000D+01
21 08 11 20  4  0  0.0  .418266281486D-04 -.159161572810D-11  .000000000000D+00
     .760000000000D+02  .458125000000D+02  .531093550750D-08 -.785011941321D+00
     .249035656452D-05  .143974961247D-01  .627897679806D-05  .515366612434D+04
     .360000000000D+06  .299885869026D-06  .300868247625D+01  .115483999252D-06
     .935432978893D+00  .241968750000D+03 -.266516570120D+01 -.857535719805D-08
     .135362781260D-09  .100000000000D+01  .150600000000D+04  .000000000000D+00
     .340000000000D+01  .000000000000D+00 -.116415321827D-07  .760000000000D+02
     .352806000000D+06  .400000000000D+01
22 08 11 20  4  0  0.0  .209104735404D-03 -.454747350886D-12  .000000000000D+00
     .790000000000D+02 -.378125000000D+01  .501485174585D-08  .308110342384D+01
    -.244006514549D-06  .510080426466D-02  .683777034283D-05  .515366850090D+04
     .360000000000D+06  .428408384323D-07 -.221017477918D+01 -.558793544769D-07
     .942827222253D+00  .238843750000D+03 -.181285190351D+01 -.828355932921D-08
    -.257867884090D-09  .100000000000D+01  .150600000000D+04  .000000000000D+00
     .340000000000D+01  .000000000000D+00 -.176951289177D-07  .790000000000D+02
     .352806000000D+06  .400000000000D+01
23 08 11 20  4  0  0.0  .380502082407D-03  .113686837722D-11  .000000000000D+00
     .880000000000D+02  .357812500000D+02  .426910639685D-08  .172549342271D+01
     .199489295483D-05  .580853177235D-02  .842101871967D-05  .515367493057D+04
     .360000000000D+06  .465661287308D-07 -.119731860766D+01  .614672899246D-07
     .970918399037D+00  .222000000000D+03  .287794266223D+01 -.797176062726D-08
    -.589310261424D-10  .100000000000D+01  .150600000000D+04  .000000000000D+00
     .340000000000D+01  .000000000000D+00 -.200234353542D-07  .880000000000D+02
     .352806000000D+06  .400000000000D+01
25 08 11 20  4  0  0.0  .377581454813D-04  .300133251585D-10  .000000000000D+00
     .580000000000D+02  .126875000000D+02  .455554689967D-08 -.161601938464D+01
     .787898898125D-06  .116684448440D-01  .514276325703D-05  .515368849564D+04
     .360000000000D+06 -.156462192535D-06 -.249471952560D+00  .197440385818D-06
     .967493497153D+00  .285281250000D+03 -.124958960690D+01 -.829534553444D-08
     .136077096729D-09  .100000000000D+01  .150600000000D+04  .000000000000D+00
     .685000000000D+01  .000000000000D+00 -.745058059692D-08  .580000000000D+02
     .352806000000D+06  .400000000000D+01
